ONEWEB-0414             
1 50491U 21132Y   25093.84565077  .00000036  00000+0  57885-4 0  9994
2 50491  87.9091  62.7724 0002253  85.7847 274.3543 13.18687921163727
ONEWEB-0417             
1 50492U 21132Z   25093.85355342 -.00000227  00000+0 -60776-3 0  9994
2 50492  87.9098  62.7938 0001917  90.2864 269.8488 13.18685385163705
ONEWEB-0418             
1 50493U 21132AA  25093.93877255  .00000083  00000+0  17767-3 0  9996
2 50493  87.9091  62.7689 0001942  95.6051 264.5303 13.18684504165057
ONEWEB-0419             
1 50494U 21132AB  25093.95631307  .00000010  00000+0 -61781-5 0  9993
2 50494  87.9089  62.7720 0001689  89.2357 270.8969 13.18687656164987
ONEWEB-0420             
1 50495U 21132AC  25093.84723968  .00000066  00000+0  13456-3 0  9991
2 50495  87.9090  62.8028 0002046  76.7994 283.3366 13.18685573163679
ONEWEB-0421             
1 50496U 21132AD  25093.91678599  .00000051  00000+0  97268-4 0  9997
2 50496  87.9098  62.7771 0002310  85.1218 275.0178 13.18688562163725
ONEWEB-0424             
1 50497U 21132AE  25093.87568935 -.00000036  00000+0 -12289-3 0  9999
2 50497  87.9093  62.7774 0001513  85.9740 274.1565 13.18684681163746
ONEWEB-0426             
1 50498U 21132AF  25093.91362066  .00000063  00000+0  12589-3 0  9993
2 50498  87.9088  62.7756 0002338  99.5160 260.6237 13.18688480163695
